{
    "links": {
        "self": "http://www.neowsapp.com/rest/v1/neo/3989302?api_key=iIulBulltgU6a56xZRHN4H3l9WmuAYTsLGpBGhQ2"
    },
    "id": "3989302",
    "neo_reference_id": "3989302",
    "name": "(2020 BQ13)",
    "designation": "2020 BQ13",
    "nasa_jpl_url": "http://ssd.jpl.nasa.gov/sbdb.cgi?sstr=3989302",
    "absolute_magnitude_h": 20.065,
    "estimated_diameter": {
        "kilometers": {
            "estimated_diameter_min": 0.2579615493,
            "estimated_diameter_max": 0.5768195598
        },
        "meters": {
            "estimated_diameter_min": 257.9615492939,
            "estimated_diameter_max": 576.8195598022
        },
        "miles": {
            "estimated_diameter_min": 0.1602898258,
            "estimated_diameter_max": 0.3584189467
        },
        "feet": {
            "estimated_diameter_min": 846.3305693852,
            "estimated_diameter_max": 1892.4526845815
        }
    },
    "is_potentially_hazardous_asteroid": false,
    "close_approach_data": [
        {
            "close_approach_date": "1988-02-01",
            "close_approach_date_full": "1988-Feb-01 15:59",
            "epoch_date_close_approach": 570729540000,
            "relative_velocity": {
                "kilometers_per_second": "22.082153618",
                "kilometers_per_hour": "79495.7530248166",
                "miles_per_hour": "49395.5694281145"
            },
            "miss_distance": {
                "astronomical": "0.3925376539",
                "lunar": "152.6971473671",
                "kilometers": "58722796.918237193",
                "miles": "36488654.0036235434"
            },
            "orbiting_body": "Earth"
        },
        {
            "close_approach_date": "1990-02-14",
            "close_approach_date_full": "1990-Feb-14 13:47",
            "epoch_date_close_approach": 635003220000,
            "relative_velocity": {
                "kilometers_per_second": "27.705657572",
                "kilometers_per_hour": "99740.367259209",
                "miles_per_hour": "61974.7854228124"
            },
            "miss_distance": {
                "astronomical": "0.470285449",
                "lunar": "182.941039661",
                "kilometers": "70353701.46239363",
                "miles": "43715762.961866894"
            },
            "orbiting_body": "Earth"
        },
        {
            "close_approach_date": "2005-02-02",
            "close_approach_date_full": "2005-Feb-02 08:51",
            "epoch_date_close_approach": 1107334260000,
            "relative_velocity": {
                "kilometers_per_second": "22.1974134546",
                "kilometers_per_hour": "79910.6884364862",
                "miles_per_hour": "49653.3941565489"
            },
            "miss_distance": {
                "astronomical": "0.283476125",
                "lunar": "110.272212625",
                "kilometers": "42407424.49585375",
                "miles": "26350751.68113175"
            },
            "orbiting_body": "Earth"
        },
        {
            "close_approach_date": "2022-02-04",
            "close_approach_date_full": "2022-Feb-04 12:40",
            "epoch_date_close_approach": 1643978400000,
            "relative_velocity": {
                "kilometers_per_second": "22.7099801828",
                "kilometers_per_hour": "81755.9286582038",
                "miles_per_hour": "50799.9546709823"
            },
            "miss_distance": {
                "astronomical": "0.2172888819",
                "lunar": "84.5253750591",
                "kilometers": "32505953.906921553",
                "miles": "20198263.1518533114"
            },
            "orbiting_body": "Earth"
        }
    ],
    "orbital_data": {
        "orbit_id": "3",
        "orbit_determination_date": "2020-03-17 01:09:10",
        "first_observation_date": "2020-01-25",
        "last_observation_date": "2020-03-05",
        "data_arc_in_days": 40,
        "observations_used": 24,
        "orbit_uncertainty": "7",
        "minimum_orbit_intersection": ".20993",
        "jupiter_tisserand_invariant": "3.918",
        "epoch_osculation": "2459000.5",
        "eccentricity": ".3334075092493811",
        "semi_major_axis": "1.654287129667467",
        "inclination": "43.38864590819919",
        "ascending_node_longitude": "139.5027612465455",
        "orbital_period": "777.1677371922235",
        "perihelion_distance": "1.102735378181729",
        "perihelion_argument": "311.0577235506215",
        "aphelion_distance": "2.205838881153205",
        "perihelion_time": "2458787.733235578398",
        "mean_anomaly": "98.55791938623852",
        "mean_motion": ".4632204642213013",
        "equinox": "J2000",
        "orbit_class": {
            "orbit_class_type": "AMO",
            "orbit_class_description": "Near-Earth asteroid orbits similar to that of 1221 Amor",
            "orbit_class_range": "1.017 AU < q (perihelion) < 1.3 AU"
        }
    },
    "is_sentry_object": false
}